{
  "norad_id": 65805,
  "name": "STARLINK-35273",
  "history": [
    {
      "epoch": "2026-04-14T21:12:52.802208Z",
      "apogee_km": 551.2759990534569,
      "perigee_km": 547.7442845405694,
      "latitude_deg": 1.4079823393119942e-05,
      "longitude_deg": 167.3177211790638,
      "height_km": 552.3711104337133,
      "semi_major_axis_km": 6927.647141797012,
      "eccentricity": 0.0002549,
      "inclination_deg": 97.6049,
      "raan_deg": 328.5917,
      "arg_perigee_deg": 83.5005,
      "mean_anomaly_deg": 276.6512,
      "mean_motion_rev_day": 15.0565033
    },
    {
      "epoch": "2026-04-15T14:45:34.857792Z",
      "apogee_km": 551.3202302041063,
      "perigee_km": 547.6901456976211,
      "latitude_deg": 2.29142932073595e-05,
      "longitude_deg": -95.85745836812393,
      "height_km": 552.3516646706578,
      "semi_major_axis_km": 6927.642187950863,
      "eccentricity": 0.000262,
      "inclination_deg": 97.6047,
      "raan_deg": 329.3123,
      "arg_perigee_deg": 83.2208,
      "mean_anomaly_deg": 276.9317,
      "mean_motion_rev_day": 15.05651945
    },
    {
      "epoch": "2026-04-16T21:03:52.810848Z",
      "apogee_km": 551.3561277639265,
      "perigee_km": 547.6401442769647,
      "latitude_deg": -4.43391201645421e-07,
      "longitude_deg": 169.5675611734189,
      "height_km": 552.3014885098554,
      "semi_major_axis_km": 6927.635136020445,
      "eccentricity": 0.0002682,
      "inclination_deg": 97.6037,
      "raan_deg": 330.5567,
      "arg_perigee_deg": 82.0398,
      "mean_anomaly_deg": 278.1133,
      "mean_motion_rev_day": 15.05654244
    },
    {
      "epoch": "2026-04-17T13:00:52.833888Z",
      "apogee_km": 551.3845251366984,
      "perigee_km": 547.6186607975615,
      "latitude_deg": -6.749172796711394e-05,
      "longitude_deg": -69.68246855319131,
      "height_km": 552.284403140752,
      "semi_major_axis_km": 6927.63859296713,
      "eccentricity": 0.0002718,
      "inclination_deg": 97.6036,
      "raan_deg": 331.2118,
      "arg_perigee_deg": 81.516,
      "mean_anomaly_deg": 278.6374,
      "mean_motion_rev_day": 15.05653117
    },
    {
      "epoch": "2026-04-18T20:54:52.649280Z",
      "apogee_km": 551.3685221731312,
      "perigee_km": 547.6109774240404,
      "latitude_deg": 5.9575987770709415e-05,
      "longitude_deg": 171.81829995784884,
      "height_km": 552.2502329875092,
      "semi_major_axis_km": 6927.6267497985855,
      "eccentricity": 0.0002712,
      "inclination_deg": 97.6033,
      "raan_deg": 332.5219,
      "arg_perigee_deg": 80.8077,
      "mean_anomaly_deg": 279.3457,
      "mean_motion_rev_day": 15.05656978
    },
    {
      "epoch": "2026-04-19T20:50:22.847136Z",
      "apogee_km": 551.653578323283,
      "perigee_km": 547.3625949566185,
      "latitude_deg": 7.121464769611098e-05,
      "longitude_deg": 172.9416058283999,
      "height_km": 552.4817171048,
      "semi_major_axis_km": 6927.64508663995,
      "eccentricity": 0.0003097,
      "inclination_deg": 97.6018,
      "raan_deg": 333.5036,
      "arg_perigee_deg": 87.6953,
      "mean_anomaly_deg": 272.4629,
      "mean_motion_rev_day": 15.05651
    },
    {
      "epoch": "2026-04-20T14:23:02.912064Z",
      "apogee_km": 551.0987955568862,
      "perigee_km": 547.6011073950858,
      "latitude_deg": 5.465479890963754e-05,
      "longitude_deg": -90.22575613501735,
      "height_km": 551.5849399920926,
      "semi_major_axis_km": 6927.486951475986,
      "eccentricity": 0.00025245,
      "inclination_deg": 97.6009,
      "raan_deg": 334.2237,
      "arg_perigee_deg": 61.7981,
      "mean_anomaly_deg": 298.3501,
      "mean_motion_rev_day": 15.05702555
    },
    {
      "epoch": "2026-04-21T20:41:21.649632Z",
      "apogee_km": 551.2465625739997,
      "perigee_km": 547.8132108649424,
      "latitude_deg": -6.0031495410195806e-05,
      "longitude_deg": 175.194292195621,
      "height_km": 552.6353387532182,
      "semi_major_axis_km": 6927.666886719471,
      "eccentricity": 0.0002478,
      "inclination_deg": 97.5945,
      "raan_deg": 335.4664,
      "arg_perigee_deg": 91.4733,
      "mean_anomaly_deg": 268.6777,
      "mean_motion_rev_day": 15.05643893
    },
    {
      "epoch": "2026-04-22T20:36:52.913664Z",
      "apogee_km": 550.6046466327189,
      "perigee_km": 548.5207945567627,
      "latitude_deg": -1.7630765257515267e-05,
      "longitude_deg": 176.30953806693535,
      "height_km": 552.7821745460326,
      "semi_major_axis_km": 6927.69972059474,
      "eccentricity": 0.0001504,
      "inclination_deg": 97.5884,
      "raan_deg": 336.4445,
      "arg_perigee_deg": 98.6231,
      "mean_anomaly_deg": 261.5166,
      "mean_motion_rev_day": 15.05633189
    },
    {
      "epoch": "2026-04-22T20:36:52.914528Z",
      "apogee_km": 550.6049930177041,
      "perigee_km": 548.5204481717765,
      "latitude_deg": -2.3283232229151572e-05,
      "longitude_deg": 176.30953520599004,
      "height_km": 552.7822264934258,
      "semi_major_axis_km": 6927.69972059474,
      "eccentricity": 0.00015045,
      "inclination_deg": 97.5884,
      "raan_deg": 336.4445,
      "arg_perigee_deg": 98.6231,
      "mean_anomaly_deg": 261.5166,
      "mean_motion_rev_day": 15.05633189
    },
    {
      "epoch": "2026-04-24T14:05:05.622432Z",
      "apogee_km": 550.9556901563401,
      "perigee_km": 548.0917952053169,
      "latitude_deg": -4.8367666632255175e-05,
      "longitude_deg": -85.7466341858797,
      "height_km": 553.0415203211048,
      "semi_major_axis_km": 6927.660742680829,
      "eccentricity": 0.0002067,
      "inclination_deg": 97.5784,
      "raan_deg": 338.1444,
      "arg_perigee_deg": 108.526,
      "mean_anomaly_deg": 251.6191,
      "mean_motion_rev_day": 15.05645896
    },
    {
      "epoch": "2026-04-25T14:00:35.834976Z",
      "apogee_km": 551.1412120802397,
      "perigee_km": 547.8492012556326,
      "latitude_deg": 2.201276796448586e-06,
      "longitude_deg": -84.62469414380413,
      "height_km": 552.5190880941477,
      "semi_major_axis_km": 6927.632206667936,
      "eccentricity": 0.0002376,
      "inclination_deg": 97.5731,
      "raan_deg": 339.1248,
      "arg_perigee_deg": 88.6692,
      "mean_anomaly_deg": 271.4807,
      "mean_motion_rev_day": 15.05655199
    },
    {
      "epoch": "2026-04-26T13:56:05.889408Z",
      "apogee_km": 550.8679416764389,
      "perigee_km": 548.143992461788,
      "latitude_deg": -4.687515947756273e-05,
      "longitude_deg": -83.50307961371071,
      "height_km": 552.3282496690478,
      "semi_major_axis_km": 6927.642967069113,
      "eccentricity": 0.0001966,
      "inclination_deg": 97.5727,
      "raan_deg": 340.1042,
      "arg_perigee_deg": 79.8258,
      "mean_anomaly_deg": 280.319,
      "mean_motion_rev_day": 15.05651691
    },
    {
      "epoch": "2026-04-27T13:51:34.850016Z",
      "apogee_km": 550.7852911314958,
      "perigee_km": 548.1334072490263,
      "latitude_deg": -3.064593930467674e-05,
      "longitude_deg": -82.38160323365847,
      "height_km": 552.7373244893541,
      "semi_major_axis_km": 6927.59634919026,
      "eccentricity": 0.0001914,
      "inclination_deg": 97.5673,
      "raan_deg": 341.0789,
      "arg_perigee_deg": 99.321,
      "mean_anomaly_deg": 260.8233,
      "mean_motion_rev_day": 15.05666889
    },
    {
      "epoch": "2026-04-28T13:47:04.911360Z",
      "apogee_km": 550.7884572647708,
      "perigee_km": 548.2224584983724,
      "latitude_deg": 5.869127608659331e-05,
      "longitude_deg": -81.26383541520224,
      "height_km": 552.9331274386728,
      "semi_major_axis_km": 6927.642457881571,
      "eccentricity": 0.0001852,
      "inclination_deg": 97.5641,
      "raan_deg": 342.0545,
      "arg_perigee_deg": 106.4894,
      "mean_anomaly_deg": 253.6537,
      "mean_motion_rev_day": 15.05651857
    },
    {
      "epoch": "2026-04-29T13:42:34.875072Z",
      "apogee_km": 550.7718756732802,
      "perigee_km": 548.2003419752846,
      "latitude_deg": -9.440829824889072e-05,
      "longitude_deg": -80.14442798502819,
      "height_km": 552.6466817876732,
      "semi_major_axis_km": 6927.623108824282,
      "eccentricity": 0.0001856,
      "inclination_deg": 97.5558,
      "raan_deg": 343.0313,
      "arg_perigee_deg": 94.3258,
      "mean_anomaly_deg": 265.818,
      "mean_motion_rev_day": 15.05658165
    },
    {
      "epoch": "2026-04-30T13:38:05.033184Z",
      "apogee_km": 550.9238564524021,
      "perigee_km": 548.0590049911616,
      "latitude_deg": -2.645099077559386e-05,
      "longitude_deg": -79.02496254791465,
      "height_km": 552.4614770543116,
      "semi_major_axis_km": 6927.628430721782,
      "eccentricity": 0.00020677,
      "inclination_deg": 97.5524,
      "raan_deg": 344.009,
      "arg_perigee_deg": 86.2688,
      "mean_anomaly_deg": 273.8775,
      "mean_motion_rev_day": 15.0565643
    },
    {
      "epoch": "2026-05-02T10:17:41.005248Z",
      "apogee_km": 550.9342297779058,
      "perigee_km": 548.0994338299315,
      "latitude_deg": 6.24204269612131e-06,
      "longitude_deg": -28.938273669631204,
      "height_km": 552.6636874358294,
      "semi_major_axis_km": 6927.653831803918,
      "eccentricity": 0.0002046,
      "inclination_deg": 97.5461,
      "raan_deg": 345.8297,
      "arg_perigee_deg": 93.3713,
      "mean_anomaly_deg": 266.7748,
      "mean_motion_rev_day": 15.05648149
    },
    {
      "epoch": "2026-05-03T15:00:17.095104Z",
      "apogee_km": 551.0046825307709,
      "perigee_km": 547.9994726989016,
      "latitude_deg": -4.2359494458243446e-05,
      "longitude_deg": -99.59832365176244,
      "height_km": 552.5580828417877,
      "semi_major_axis_km": 6927.6390776148355,
      "eccentricity": 0.0002169,
      "inclination_deg": 97.5418,
      "raan_deg": 346.9991,
      "arg_perigee_deg": 89.7181,
      "mean_anomaly_deg": 270.4294,
      "mean_motion_rev_day": 15.05652959
    }
  ]
}